[{"name":"ELEKTRO-L 3","l1":"1 44903U 19095A   26183.78827243 -.00000086  00000+0  00000+0 0  9998","l2":"2 44903   0.2957  81.9505 0001671   7.6891 190.9485  1.00272509 23860","cat":"geostationary"},{"name":"SHIJIAN-20 (SJ-20)","l1":"1 44910U 19097A   26183.73411770  .00000143  00000+0  00000+0 0  9990","l2":"2 44910   4.9556  74.8772 0015629  56.8035  98.1972  1.00276064 23854","cat":"geostationary"},{"name":"TJS-5","l1":"1 44978U 20002A   26183.81473757 -.00000331  00000+0  00000+0 0  9994","l2":"2 44978   0.0325  57.5214 0008053 356.0744 268.0509  1.00270837 23860","cat":"geostationary"},{"name":"GSAT-30","l1":"1 45026U 20005A   26183.79488574 -.00000154  00000+0  00000+0 0  9995","l2":"2 45026   0.0154  83.6153 0003629   5.0010 201.4030  1.00271583 23665","cat":"geostationary"},{"name":"EUTELSAT KONNECT","l1":"1 45027U 20005B   26183.72656597  .00000060  00000+0  00000+0 0  9996","l2":"2 45027   0.0684  94.1137 0002509 123.1139 332.3199  1.00272271 24490","cat":"geostationary"},{"name":"JCSAT-17","l1":"1 45245U 20013A   26183.76582906 -.00000304  00000+0  00000+0 0  9995","l2":"2 45245   5.3915 357.0076 0003203 114.5659 220.9453  1.00272666 23383","cat":"geostationary"},{"name":"GEO-KOMPSAT-2B","l1":"1 45246U 20013B   26183.76307902  .00000000  00000+0  00000+0 0  9999","l2":"2 45246   0.0173 246.4400 0000514 339.7401  97.5866  1.00271051 23431","cat":"geostationary"},{"name":"BEIDOU-3 G2","l1":"1 45344U 20017A   26183.82916299 -.00000131  00000+0  00000+0 0  9990","l2":"2 45344   2.8942  47.5704 0002593  45.3695 206.5155  1.00271577 23419","cat":"geostationary"},{"name":"AEHF-6 (USA 298)","l1":"1 45465U 20022B   26183.76398549 -.00000286  00000+0  00000+0 0  9996","l2":"2 45465   2.5151 301.3151 0041926  16.1888  15.9877  1.00277030 23178","cat":"geostationary"},{"name":"BEIDOU-3 G3","l1":"1 45807U 20040A   26183.81674172 -.00000344  00000+0  00000+0 0  9996","l2":"2 45807   2.4838  67.4780 0002467 333.3982 284.5678  1.00271585 22220","cat":"geostationary"},{"name":"APSTAR-6D","l1":"1 45863U 20045A   26180.68586466 -.00000307  00000+0  00000+0 0  9992","l2":"2 45863   0.0501  93.2652 0002259   0.9714 204.4597  1.00270673 21987","cat":"geostationary"},{"name":"KOREASAT 116","l1":"1 45920U 20048A   26183.73001426 -.00000351  00000+0  00000+0 0  9995","l2":"2 45920   0.0226 300.8281 0001424 196.3795 162.5749  1.00270058 21791","cat":"geostationary"},{"name":"EXPRESS 103","l1":"1 45985U 20053A   26182.78939428 -.00000270  00000+0  00000+0 0  9998","l2":"2 45985   0.0193 285.1671 0000472 123.1491 252.2070  1.00273136 21790","cat":"geostationary"},{"name":"EXPRESS 80","l1":"1 45986U 20053B   26182.99991970  .00000000  00000+0  00000+0 0  9992","l2":"2 45986   0.0189  13.6930 0001962 193.4780 152.8187  1.00269657 21779","cat":"geostationary"},{"name":"BSAT-4B","l1":"1 46112U 20056A   26183.75814376 -.00000339  00000+0  00000+0 0  9992","l2":"2 46112   0.0484 146.0810 0004347 336.0563 181.4157  1.00271692 21543","cat":"geostationary"},{"name":"MEV-2","l1":"1 46113U 20056B   26183.72500596  .00000000  00000+0  00000+0 0  9990","l2":"2 46113   0.0404 262.6446 0000214 262.7453  15.3732  1.00271789 80870","cat":"geostationary"},{"name":"GALAXY 30 (G-30)","l1":"1 46114U 20056C   26183.70012315  .00000000  00000+0  00000+0 0  9996","l2":"2 46114   0.0212  28.7704 0002166  73.6259 305.3858  1.00271672 21447","cat":"geostationary"},{"name":"GAOFEN-13 01","l1":"1 46610U 20071A   26183.89200807 -.00000352  00000+0  00000+0 0  9990","l2":"2 46610   0.4362  86.3852 0044761 119.7142 154.2306  1.00273382 21070","cat":"geostationary"},{"name":"LUCAS (JDRS-1)","l1":"1 47202U 20089A   26183.80150772 -.00000224  00000+0  00000+0 0  9991","l2":"2 47202   0.0580 267.1810 0002340 172.6835 220.2865  1.00269331 20570","cat":"geostationary"},{"name":"SXM-7","l1":"1 47240U 20096A   26183.63704661 -.00000194  00000+0  00000+0 0  9990","l2":"2 47240   0.0221  93.9862 0003852  23.0335 307.8337  1.00271142  7595","cat":"geostationary"},{"name":"CMS-01","l1":"1 47256U 20099A   26183.79488641 -.00000154  00000+0  00000+0 0  9990","l2":"2 47256   0.0450  92.6158 0003087 180.3549  17.0155  1.00271405 20353","cat":"geostationary"},{"name":"TURKSAT 5A","l1":"1 47306U 21001A   26183.77051110  .00000165  00000+0  00000+0 0  9996","l2":"2 47306   0.0160  61.2803 0000200  73.5874  94.2558  1.00272619 20121","cat":"geostationary"},{"name":"TIANTONG-1 3","l1":"1 47321U 21003A   26183.82916289 -.00000143  00000+0  00000+0 0  9995","l2":"2 47321   1.7442 340.2589 0003466 124.7464 195.8980  1.00273141 20118","cat":"geostationary"},{"name":"TJS-6","l1":"1 47613U 21010A   26183.76050926  .00000053  00000+0  00000+0 0  9996","l2":"2 47613   0.2124 262.8205 0003274 226.9273 243.3076  1.00270417 19966","cat":"geostationary"},{"name":"SBIRS GEO-5 (USA 315)","l1":"1 48618U 21042A   26183.80350139 -.00000255  00000+0  00000+0 0  9996","l2":"2 48618   5.0843 329.2322 0001899 139.3906 195.2902  1.00271562 18922","cat":"geostationary"},{"name":"FENGYUN 4B","l1":"1 48808U 21047A   26183.81253109 -.00000319  00000+0  00000+0 0  9993","l2":"2 48808   0.1896  79.1046 0005752 278.0179 320.9630  1.00269807 18728","cat":"geostationary"},{"name":"SXM-8","l1":"1 48838U 21049A   26183.63704661 -.00000194  00000+0  00000+0 0  9993","l2":"2 48838   0.0152  24.2493 0005472  10.9849  29.6228  1.00270266 18736","cat":"geostationary"},{"name":"TIANLIAN 1-05","l1":"1 49011U 21063A   26182.65915148  .00000118  00000+0  00000+0 0  9993","l2":"2 49011   1.6292  80.5942 0000848  30.6362  62.6248  1.00274453 18222","cat":"geostationary"},{"name":"STAR ONE D2","l1":"1 49055U 21069A   26183.56872633  .00000000  00000+0  00000+0 0  9999","l2":"2 49055   0.0160  19.6099 0002717 116.3391 279.3053  1.00277704 18092","cat":"geostationary"},{"name":"EUTELSAT QUANTUM","l1":"1 49056U 21069B   26183.76404350  .00000137  00000+0  00000+0 0  9990","l2":"2 49056   0.0100  21.8740 0002613  80.1595 141.5131  1.00272715 18087","cat":"geostationary"},{"name":"ZHONGXING-2E","l1":"1 49062U 21071A   26183.75492887 -.00000281  00000+0  00000+0 0  9992","l2":"2 49062   0.0398 116.7390 0001875  23.6174 150.2677  1.00273961 18190","cat":"geostationary"}]