OBJECT_NAME,OBJECT_ID,EPOCH,MEAN_MOTION,ECCENTRICITY,INCLINATION,RA_OF_ASC_NODE,ARG_OF_PERICENTER,MEAN_ANOMALY,EPHEMERIS_TYPE,CLASSIFICATION_TYPE,NORAD_CAT_ID,ELEMENT_SET_NO,REV_AT_EPOCH,BSTAR,MEAN_MOTION_DOT,MEAN_MOTION_DDOT
ELEKTRO-L 3,2019-095A,2026-07-02T18:55:06.737952,1.00272509,.0001671,0.2957,81.9505,7.6891,190.9485,0,U,44903,999,2386,0,-.86E-6,0
SHIJIAN-20 (SJ-20),2019-097A,2026-07-02T17:37:07.769280,1.00276064,.0015629,4.9556,74.8772,56.8035,98.1972,0,U,44910,999,2385,0,.143E-5,0
TJS-5,2020-002A,2026-07-02T19:33:13.326048,1.00270837,.0008053,0.0325,57.5214,356.0744,268.0509,0,U,44978,999,2386,0,-.331E-5,0
GSAT-30,2020-005A,2026-07-02T19:04:38.127936,1.00271583,.0003629,0.0154,83.6153,5.0010,201.4030,0,U,45026,999,2366,0,-.154E-5,0
EUTELSAT KONNECT,2020-005B,2026-07-02T17:26:15.299808,1.00272271,.0002509,0.0684,94.1137,123.1139,332.3199,0,U,45027,999,2449,0,.6E-6,0
JCSAT-17,2020-013A,2026-07-02T18:22:47.630784,1.00272666,.0003203,5.3915,357.0076,114.5659,220.9453,0,U,45245,999,2338,0,-.304E-5,0
GEO-KOMPSAT-2B,2020-013B,2026-07-02T18:18:50.027328,1.00271051,.0000514,0.0173,246.4400,339.7401,97.5866,0,U,45246,999,2343,0,0,0
BEIDOU-3 G2,2020-017A,2026-07-02T19:53:59.682336,1.00271577,.0002593,2.8942,47.5704,45.3695,206.5155,0,U,45344,999,2341,0,-.131E-5,0
AEHF-6 (USA 298),2020-022B,2026-07-02T18:20:08.346336,1.00277030,.0041926,2.5151,301.3151,16.1888,15.9877,0,U,45465,999,2317,0,-.286E-5,0
BEIDOU-3 G3,2020-040A,2026-07-02T19:36:06.484608,1.00271585,.0002467,2.4838,67.4780,333.3982,284.5678,0,U,45807,999,2222,0,-.344E-5,0
APSTAR-6D,2020-045A,2026-06-29T16:27:38.706624,1.00270673,.00022596,0.0501,93.2652,0.9714,204.4597,0,U,45863,999,2198,0,-.307E-5,0
KOREASAT 116,2020-048A,2026-07-02T17:31:13.232064,1.00270058,.0001424,0.0226,300.8281,196.3795,162.5749,0,U,45920,999,2179,0,-.351E-5,0
EXPRESS 103,2020-053A,2026-07-01T18:56:43.665792,1.00273136,.00004726,0.0193,285.1671,123.1491,252.2070,0,U,45985,999,2179,0,-.27E-5,0
EXPRESS 80,2020-053B,2026-07-01T23:59:53.062080,1.00269657,.00019628,0.0189,13.6930,193.4780,152.8187,0,U,45986,999,2177,0,0,0
BSAT-4B,2020-056A,2026-07-02T18:11:43.620864,1.00271692,.0004347,0.0484,146.0810,336.0563,181.4157,0,U,46112,999,2154,0,-.339E-5,0
MEV-2,2020-056B,2026-07-02T17:24:00.514944,1.00271789,.0000214,0.0404,262.6446,262.7453,15.3732,0,U,46113,999,8087,0,0,0
GALAXY 30 (G-30),2020-056C,2026-07-02T16:48:10.640160,1.00271672,.0002166,0.0212,28.7704,73.6259,305.3858,0,U,46114,999,2144,0,0,0
GAOFEN-13 01,2020-071A,2026-07-02T21:24:29.497248,1.00273382,.0044761,0.4362,86.3852,119.7142,154.2306,0,U,46610,999,2107,0,-.352E-5,0
LUCAS (JDRS-1),2020-089A,2026-07-02T19:14:10.267008,1.00269331,.000234,0.0580,267.1810,172.6835,220.2865,0,U,47202,999,2057,0,-.224E-5,0
SXM-7,2020-096A,2026-07-02T15:17:20.827104,1.00271142,.0003852,0.0221,93.9862,23.0335,307.8337,0,U,47240,999,759,0,-.194E-5,0
CMS-01,2020-099A,2026-07-02T19:04:38.185824,1.00271405,.0003087,0.0450,92.6158,180.3549,17.0155,0,U,47256,999,2035,0,-.154E-5,0
TURKSAT 5A,2021-001A,2026-07-02T18:29:32.159040,1.00272619,.00002,0.0160,61.2803,73.5874,94.2558,0,U,47306,999,2012,0,.165E-5,0
TIANTONG-1 3,2021-003A,2026-07-02T19:53:59.673696,1.00273141,.0003466,1.7442,340.2589,124.7464,195.8980,0,U,47321,999,2011,0,-.143E-5,0
TJS-6,2021-010A,2026-07-02T18:15:08.000064,1.00270417,.0003274,0.2124,262.8205,226.9273,243.3076,0,U,47613,999,1996,0,.53E-6,0
SBIRS GEO-5 (USA 315),2021-042A,2026-07-02T19:17:02.520096,1.00271562,.0001899,5.0843,329.2322,139.3906,195.2902,0,U,48618,999,1892,0,-.255E-5,0
FENGYUN 4B,2021-047A,2026-07-02T19:30:02.686176,1.00269807,.0005752,0.1896,79.1046,278.0179,320.9630,0,U,48808,999,1872,0,-.319E-5,0
SXM-8,2021-049A,2026-07-02T15:17:20.827104,1.00270266,.0005472,0.0152,24.2493,10.9849,29.6228,0,U,48838,999,1873,0,-.194E-5,0
TIANLIAN 1-05,2021-063A,2026-07-01T15:49:10.687872,1.00274453,.00008486,1.6292,80.5942,30.6362,62.6248,0,U,49011,999,1822,0,.118E-5,0
STAR ONE D2,2021-069A,2026-07-02T13:38:57.954912,1.00277704,.0002717,0.0160,19.6099,116.3391,279.3053,0,U,49055,999,1809,0,0,0
EUTELSAT QUANTUM,2021-069B,2026-07-02T18:20:13.358400,1.00272715,.0002613,0.0100,21.8740,80.1595,141.5131,0,U,49056,999,1808,0,.137E-5,0
ZHONGXING-2E,2021-071A,2026-07-02T18:07:05.854368,1.00273961,.0001875,0.0398,116.7390,23.6174,150.2677,0,U,49062,999,1819,0,-.281E-5,0
